{"type": "FeatureCollection", "features": [ {"type": "Feature", "properties": {"norad_id": 41785, "name": "ALSAT 1B", "group": "resource", "lat": -66.39778531412578, "lon": 28.65263665846336, "alt_km": 667.10160525233, "timestamp": "2025-12-25T03:55:55.963736+00:00", "meta": {"OBJECT_NAME": "ALSAT 1B", "OBJECT_ID": "2016-059C", "EPOCH": "2025-12-24T21:42:50.056128", "MEAN_MOTION": 14.7208704, "ECCENTRICITY": 0.0010755, "INCLINATION": 97.7807, "RA_OF_ASC_NODE": 10.1687, "ARG_OF_PERICENTER": 69.267, "MEAN_ANOMALY": 290.9689, "EPHEMERIS_TYPE": 0, "CLASSIFICATION_TYPE": "U", "NORAD_CAT_ID": 41785, "ELEMENT_SET_NO": 999, "REV_AT_EPOCH": 49493, "BSTAR": 5.1735e-05, "MEAN_MOTION_DOT": 2.78e-06, "MEAN_MOTION_DDOT": 0}, "tle": {"line1": "1 41785U 16059C   25358.90474602  .00000278  00000+0  51735-4 0  9992", "line2": "2 41785  97.7807  10.1687 0010755  69.2670 290.9689 14.72087040494931"}}, "geometry": {"type": "Point", "coordinates": [28.65263665846336, -66.39778531412578]}}, {"type": "Feature", "properties": {"norad_id": 41787, "name": "PATHFINDER 1", "group": "resource", "lat": 20.429756513378454, "lon": -175.70710338479452, "alt_km": 678.6968942798421, "timestamp": "2025-12-25T03:55:55.963746+00:00", "meta": {"OBJECT_NAME": "PATHFINDER 1", "OBJECT_ID": "2016-059E", "EPOCH": "2025-12-24T17:23:29.830848", "MEAN_MOTION": 14.67341271, "ECCENTRICITY": 0.0029624, "INCLINATION": 97.8138, "RA_OF_ASC_NODE": 0.9421, "ARG_OF_PERICENTER": 44.627, "MEAN_ANOMALY": 315.7313, "EPHEMERIS_TYPE": 0, "CLASSIFICATION_TYPE": "U", "NORAD_CAT_ID": 41787, "ELEMENT_SET_NO": 999, "REV_AT_EPOCH": 49412, "BSTAR": 0.00014622, "MEAN_MOTION_DOT": 7.84e-06, "MEAN_MOTION_DDOT": 0}, "tle": {"line1": "1 41787U 16059E   25358.72465082  .00000784  00000+0  14622-3 0  9991", "line2": "2 41787  97.8138   0.9421 0029624  44.6270 315.7313 14.67341271494126"}}, "geometry": {"type": "Point", "coordinates": [-175.70710338479452, 20.429756513378454]}}, {"type": "Feature", "properties": {"norad_id": 41790, "name": "SCATSAT 1", "group": "resource", "lat": -48.74162219443758, "lon": 65.38439309624398, "alt_km": 668.8385222755214, "timestamp": "2025-12-25T03:55:55.963756+00:00", "meta": {"OBJECT_NAME": "SCATSAT 1", "OBJECT_ID": "2016-059H", "EPOCH": "2025-12-24T16:47:24.412704", "MEAN_MOTION": 14.78973524, "ECCENTRICITY": 0.0056473, "INCLINATION": 98.1448, "RA_OF_ASC_NODE": 55.5184, "ARG_OF_PERICENTER": 90.3423, "MEAN_ANOMALY": 270.4259, "EPHEMERIS_TYPE": 0, "CLASSIFICATION_TYPE": "U", "NORAD_CAT_ID": 41790, "ELEMENT_SET_NO": 999, "REV_AT_EPOCH": 7579, "BSTAR": 0.00019494, "MEAN_MOTION_DOT": 1.421e-05, "MEAN_MOTION_DDOT": 0}, "tle": {"line1": "1 41790U 16059H   25358.69958811  .00001421  00000+0  19494-3 0  9999", "line2": "2 41790  98.1448  55.5184 0056473  90.3423 270.4259 14.78973524 75798"}}, "geometry": {"type": "Point", "coordinates": [65.38439309624398, -48.74162219443758]}}, {"type": "Feature", "properties": {"norad_id": 41875, "name": "GOKTURK 1A", "group": "resource", "lat": 32.98880876645522, "lon": -113.96933569875297, "alt_km": 681.5442521820032, "timestamp": "2025-12-25T03:55:55.963766+00:00", "meta": {"OBJECT_NAME": "GOKTURK 1A", "OBJECT_ID": "2016-073A", "EPOCH": "2025-12-24T21:12:48.534048", "MEAN_MOTION": 14.62793794, "ECCENTRICITY": 0.0001298, "INCLINATION": 98.1427, "RA_OF_ASC_NODE": 251.0873, "ARG_OF_PERICENTER": 82.1059, "MEAN_ANOMALY": 278.029, "EPHEMERIS_TYPE": 0, "CLASSIFICATION_TYPE": "U", "NORAD_CAT_ID": 41875, "ELEMENT_SET_NO": 999, "REV_AT_EPOCH": 48334, "BSTAR": 0.00016224, "MEAN_MOTION_DOT": 7.81e-06, "MEAN_MOTION_DDOT": 0}, "tle": {"line1": "1 41875U 16073A   25358.88389507  .00000781  00000+0  16224-3 0  9996", "line2": "2 41875  98.1427 251.0873 0001298  82.1059 278.0290 14.62793794483341"}}, "geometry": {"type": "Point", "coordinates": [-113.96933569875297, 32.98880876645522]}}, {"type": "Feature", "properties": {"norad_id": 41877, "name": "RESOURCESAT-2A", "group": "resource", "lat": 42.75688693580053, "lon": 60.736823639263434, "alt_km": 817.4206968472354, "timestamp": "2025-12-25T03:55:55.963776+00:00", "meta": {"OBJECT_NAME": "RESOURCESAT-2A", "OBJECT_ID": "2016-074A", "EPOCH": "2025-12-24T19:16:58.156896", "MEAN_MOTION": 14.21605083, "ECCENTRICITY": 0.0001598, "INCLINATION": 98.774, "RA_OF_ASC_NODE": 68.5885, "ARG_OF_PERICENTER": 202.0678, "MEAN_ANOMALY": 158.043, "EPHEMERIS_TYPE": 0, "CLASSIFICATION_TYPE": "U", "NORAD_CAT_ID": 41877, "ELEMENT_SET_NO": 999, "REV_AT_EPOCH": 46952, "BSTAR": 0.0001037, "MEAN_MOTION_DOT": 1.83e-06, "MEAN_MOTION_DDOT": 0}, "tle": {"line1": "1 41877U 16074A   25358.80345089  .00000183  00000+0  10370-3 0  9990", "line2": "2 41877  98.7740  68.5885 0001598 202.0678 158.0430 14.21605083469529"}}, "geometry": {"type": "Point", "coordinates": [60.736823639263434, 42.75688693580053]}}, {"type": "Feature", "properties": {"norad_id": 41948, "name": "CARTOSAT-2D", "group": "resource", "lat": 82.50599123588535, "lon": -40.31350223115859, "alt_km": 497.50598317626736, "timestamp": "2025-12-25T03:55:55.963787+00:00", "meta": {"OBJECT_NAME": "CARTOSAT-2D", "OBJECT_ID": "2017-008A", "EPOCH": "2025-12-24T21:12:38.098656", "MEAN_MOTION": 15.19182024, "ECCENTRICITY": 0.0005403, "INCLINATION": 97.437, "RA_OF_ASC_NODE": 56.195, "ARG_OF_PERICENTER": 118.373, "MEAN_ANOMALY": 241.805, "EPHEMERIS_TYPE": 0, "CLASSIFICATION_TYPE": "U", "NORAD_CAT_ID": 41948, "ELEMENT_SET_NO": 999, "REV_AT_EPOCH": 49111, "BSTAR": 0.00019526, "MEAN_MOTION_DOT": 4.04e-05, "MEAN_MOTION_DDOT": 0}, "tle": {"line1": "1 41948U 17008A   25358.88377429  .00004040  00000+0  19526-3 0  9996", "line2": "2 41948  97.4370  56.1950 0005403 118.3730 241.8050 15.19182024491118"}}, "geometry": {"type": "Point", "coordinates": [-40.31350223115859, 82.50599123588535]}}, {"type": "Feature", "properties": {"norad_id": 42063, "name": "SENTINEL-2B", "group": "resource", "lat": 62.07316900846157, "lon": 54.906723634637245, "alt_km": 782.1745829401716, "timestamp": "2025-12-25T03:55:55.963797+00:00", "meta": {"OBJECT_NAME": "SENTINEL-2B", "OBJECT_ID": "2017-013A", "EPOCH": "2025-12-24T19:14:44.697408", "MEAN_MOTION": 14.30815396, "ECCENTRICITY": 0.0001179, "INCLINATION": 98.57, "RA_OF_ASC_NODE": 71.078, "ARG_OF_PERICENTER": 90.2921, "MEAN_ANOMALY": 269.8397, "EPHEMERIS_TYPE": 0, "CLASSIFICATION_TYPE": "U", "NORAD_CAT_ID": 42063, "ELEMENT_SET_NO": 999, "REV_AT_EPOCH": 45970, "BSTAR": 6.5038e-05, "MEAN_MOTION_DOT": 1.27e-06, "MEAN_MOTION_DDOT": 0}, "tle": {"line1": "1 42063U 17013A   25358.80190622  .00000127  00000+0  65038-4 0  9993", "line2": "2 42063  98.5700  71.0780 0001179  90.2921 269.8397 14.30815396459709"}}, "geometry": {"type": "Point", "coordinates": [54.906723634637245, 62.07316900846157]}}, {"type": "Feature", "properties": {"norad_id": 42767, "name": "CARTOSAT-2E", "group": "resource", "lat": 0.029831747766926476, "lon": 56.58304185991691, "alt_km": 513.0596464186538, "timestamp": "2025-12-25T03:55:55.963808+00:00", "meta": {"OBJECT_NAME": "CARTOSAT-2E", "OBJECT_ID": "2017-036C", "EPOCH": "2025-12-24T20:01:41.040192", "MEAN_MOTION": 15.19184682, "ECCENTRICITY": 0.0002449, "INCLINATION": 97.4537, "RA_OF_ASC_NODE": 56.262, "ARG_OF_PERICENTER": 174.9269, "MEAN_ANOMALY": 185.199, "EPHEMERIS_TYPE": 0, "CLASSIFICATION_TYPE": "U", "NORAD_CAT_ID": 42767, "ELEMENT_SET_NO": 999, "REV_AT_EPOCH": 47167, "BSTAR": 0.00010316, "MEAN_MOTION_DOT": 2.102e-05, "MEAN_MOTION_DDOT": 0}, "tle": {"line1": "1 42767U 17036C   25358.83450278  .00002102  00000+0  10316-3 0  9991", "line2": "2 42767  97.4537  56.2620 0002449 174.9269 185.1990 15.19184682471674"}}, "geometry": {"type": "Point", "coordinates": [56.58304185991691, 0.029831747766926476]}}, {"type": "Feature", "properties": {"norad_id": 42920, "name": "FORMOSAT-5", "group": "resource", "lat": -58.387566041600536, "lon": -120.39141447520386, "alt_km": 723.6707366574174, "timestamp": "2025-12-25T03:55:55.963818+00:00", "meta": {"OBJECT_NAME": "FORMOSAT-5", "OBJECT_ID": "2017-049A", "EPOCH": "2025-12-24T18:33:19.423008", "MEAN_MOTION": 14.50767241, "ECCENTRICITY": 0.0009833, "INCLINATION": 98.2439, "RA_OF_ASC_NODE": 72.8497, "ARG_OF_PERICENTER": 260.3075, "MEAN_ANOMALY": 99.7009, "EPHEMERIS_TYPE": 0, "CLASSIFICATION_TYPE": "U", "NORAD_CAT_ID": 42920, "ELEMENT_SET_NO": 999, "REV_AT_EPOCH": 44138, "BSTAR": 6.8236e-05, "MEAN_MOTION_DOT": 2.25e-06, "MEAN_MOTION_DDOT": 0}, "tle": {"line1": "1 42920U 17049A   25358.77314147  .00000225  00000+0  68236-4 0  9992", "line2": "2 42920  98.2439  72.8497 0009833 260.3075  99.7009 14.50767241441388"}}, "geometry": {"type": "Point", "coordinates": [-120.39141447520386, -58.387566041600536]}}, {"type": "Feature", "properties": {"norad_id": 42969, "name": "SENTINEL-5P", "group": "resource", "lat": -42.87559398041846, "lon": -54.11110764608959, "alt_km": 834.0879326570657, "timestamp": "2025-12-25T03:55:55.963828+00:00", "meta": {"OBJECT_NAME": "SENTINEL-5P", "OBJECT_ID": "2017-064A", "EPOCH": "2025-12-24T19:40:42.588768", "MEAN_MOTION": 14.19520402, "ECCENTRICITY": 0.0001055, "INCLINATION": 98.7802, "RA_OF_ASC_NODE": 297.2978, "ARG_OF_PERICENTER": 90.9403, "MEAN_ANOMALY": 269.1894, "EPHEMERIS_TYPE": 0, "CLASSIFICATION_TYPE": "U", "NORAD_CAT_ID": 42969, "ELEMENT_SET_NO": 999, "REV_AT_EPOCH": 42482, "BSTAR": 6.0571e-05, "MEAN_MOTION_DOT": 8.3e-07, "MEAN_MOTION_DDOT": 0}, "tle": {"line1": "1 42969U 17064A   25358.81993737  .00000083  00000+0  60571-4 0  9991", "line2": "2 42969  98.7802 297.2978 0001055  90.9403 269.1894 14.19520402424823"}}, "geometry": {"type": "Point", "coordinates": [-54.11110764608959, -42.87559398041846]}}]}